{
  "norad_id": 48236,
  "name": "ONEWEB-0197",
  "history": [
    {
      "epoch": "2026-03-28T20:18:17.182080Z",
      "apogee_km": 1206.7874714729223,
      "perigee_km": 1204.7816758951149,
      "latitude_deg": -5.839015949587414e-05,
      "longitude_deg": 174.89338257180674,
      "height_km": 1208.586965867894,
      "semi_major_axis_km": 7583.921573684019,
      "eccentricity": 0.00013224,
      "inclination_deg": 87.8953,
      "raan_deg": 305.7256,
      "arg_perigee_deg": 84.8964,
      "mean_anomaly_deg": 275.2316,
      "mean_motion_rev_day": 13.14504303
    },
    {
      "epoch": "2026-03-29T03:36:43.471296Z",
      "apogee_km": 1206.7688249508328,
      "perigee_km": 1204.798522359817,
      "latitude_deg": 6.366307818207693e-06,
      "longitude_deg": 64.92304630352706,
      "height_km": 1208.5896018864014,
      "semi_major_axis_km": 7583.920673655325,
      "eccentricity": 0.0001299,
      "inclination_deg": 87.8953,
      "raan_deg": 305.6649,
      "arg_perigee_deg": 85.0089,
      "mean_anomaly_deg": 275.1189,
      "mean_motion_rev_day": 13.14504537
    },
    {
      "epoch": "2026-03-30T01:32:02.387328Z",
      "apogee_km": 1206.7688563023403,
      "perigee_km": 1204.7970371161973,
      "latitude_deg": 6.745664134109507e-05,
      "longitude_deg": 95.01173093355321,
      "height_km": 1208.6128156370517,
      "semi_major_axis_km": 7583.9199467092685,
      "eccentricity": 0.00013,
      "inclination_deg": 87.895,
      "raan_deg": 305.4827,
      "arg_perigee_deg": 86.4087,
      "mean_anomaly_deg": 273.7192,
      "mean_motion_rev_day": 13.14504726
    },
    {
      "epoch": "2026-03-30T12:29:41.822880Z",
      "apogee_km": 1206.7691629480505,
      "perigee_km": 1204.7971920235013,
      "latitude_deg": 5.512105839838239e-05,
      "longitude_deg": -69.94383418826112,
      "height_km": 1208.6257977931,
      "semi_major_axis_km": 7583.920177485776,
      "eccentricity": 0.00013001,
      "inclination_deg": 87.895,
      "raan_deg": 305.3916,
      "arg_perigee_deg": 87.151,
      "mean_anomaly_deg": 272.9769,
      "mean_motion_rev_day": 13.14504666
    },
    {
      "epoch": "2026-03-30T19:48:08.230464Z",
      "apogee_km": 1206.773791198896,
      "perigee_km": 1204.800302483428,
      "latitude_deg": 4.191485584011648e-05,
      "longitude_deg": -179.91466752212537,
      "height_km": 1208.6319240553985,
      "semi_major_axis_km": 7583.924046841162,
      "eccentricity": 0.00013011,
      "inclination_deg": 87.8949,
      "raan_deg": 305.3309,
      "arg_perigee_deg": 87.2845,
      "mean_anomaly_deg": 272.8434,
      "mean_motion_rev_day": 13.1450366
    },
    {
      "epoch": "2026-03-31T21:22:40.190016Z",
      "apogee_km": 1206.79507189579,
      "perigee_km": 1204.7731985211449,
      "latitude_deg": -3.665080841536452e-05,
      "longitude_deg": 155.18921597434337,
      "height_km": 1208.650733973247,
      "semi_major_axis_km": 7583.921135208468,
      "eccentricity": 0.0001333,
      "inclination_deg": 87.8945,
      "raan_deg": 305.1183,
      "arg_perigee_deg": 88.5838,
      "mean_anomaly_deg": 271.5444,
      "mean_motion_rev_day": 13.14504417
    }
  ]
}